#dP2018 11 23  0  0  0.00000000      96 __u+U ITR00 FIT  IAC
## 2028 432000.00000000   900.00000000 58445 0.0000000000000
+   90   C01C02C03C04C05C06C07C08C09C10C12C13C14E01E02E03E04
+        E05E07E08E09E11E12E14E18E19E21E24E25E26E27E30E31G01
+        G02G03G05G06G07G08G09G10G11G12G13G14G15G16G17G19G20
+        G21G22G23G24G25G26G27G28G29G30G31G32J01J02J03J07R01
+        R02R03R04R05R07R08R09R10R11R13R14R15R16R17R18R19R20
+        R21R22R23R24R26  0  0  0  0  0  0  0  0  0  0  0  0
++        12 12 12 12 12  8  8  8  8  8  7  8  8  6  6  6  6
++         6  6  6  6  6  6  6  6  6  6  6  6  6  6  6  6  3
++         3  3  3  3  4  3  3  3  3  3  3  3  3  3  3  3  3
++         3  3  3  3  3  3  3  3  3  4  3  3 10 10  9 15  6
++         5  5  5  6  6  6  5  5  5  5  5  5  5  5  5  5  5
++         5  5  5  6  8  0  0  0  0  0  0  0  0  0  0  0  0
%c M  cc GPS ccc cccc cccc cccc cccc ccccc ccccc ccccc ccccc
%c cc cc ccc ccc cccc cccc cccc cccc ccccc ccccc ccccc ccccc
%f  0.0000000  0.000000000  0.00000000000  0.000000000000000
%f  0.0000000  0.000000000  0.00000000000  0.000000000000000
%i    0    0    0    0      0      0      0      0         0
%i    0    0    0    0      0      0      0      0         0
/* INFORMATION & ANALYSIS CENTER (IAC) OF MCC   (RAPID DATA)
/* S/V CLOCKS ARE ALIGNED TO GPS & GLONASS TIME RESPECTIVELY
/* USING THE BROADCAST EPHEMERIS                            
/* PCV:IGS14_2022 OL/AL:FES2004  NONE     YN ORB:CoN CLK:CoN
*  2018 11 23 17 45  0.00000000
PC01 -32272.698500  27113.395294   1088.386629    -76.393172
PC02   4301.644889  41964.568055   -502.380095   -120.708172
PC03 -14875.550675  39426.049586    509.624452    -14.624477
PC04 -39585.760100  14524.336790    591.519589     -5.608869
PC05  21834.676565  36054.910719   -780.444162    108.643166
PC06 -10199.371218  23012.661201 -33507.247599     79.248636
PC07 -24328.780784  27694.163334  20170.543477   -149.105384
PC08 -13490.412253  38148.887714  12426.533703     41.266491
PC09   6477.429429  31608.355624 -26777.304435    308.619356
PC10  -8029.998437  28738.613241  29810.320671   -263.048409
PC12 -11366.028407 -25412.042364    970.880405    230.196394
PC13  -4521.005135  42019.561542  -1884.941338   -392.415310
PC14 -26230.074933  -7442.982524   6119.799823    291.341090
PE01  -2220.578334 -17099.193399 -24052.321182   -484.206865
PE02   2268.726335  17085.431983  24072.524860     36.336993
PE03  13306.617483  20719.423542 -16440.455614   -102.977415
PE04 -26156.345124 -13837.222309   -756.380219   -164.697929
PE05  -7427.250033  15496.494896 -24105.332184    154.457876
PE07  23743.588490  -1223.883509  17639.300577    -80.812289
PE08  26296.586870  13579.930645    808.663223   6457.096162
PE09 -23670.188135   1347.149300 -17713.415056   6609.051833
PE11 -15467.771697   9055.954507  23552.830566   5710.932577
PE12 -14788.397106 -13998.746674  21491.326370   5563.111258
PE14  21804.160617  15676.058747 -10479.075401   6485.181000
PE18 -14294.094745 -24531.313804  -2625.603373   5734.287494
PE19 -11506.624751 -20616.532690  17851.788374    -10.415546
PE21  17544.245150 -20309.082268 -12487.669660   -505.940731
PE24 -26621.222301  11647.875918  -5687.783469   6374.306922
PE25 -17551.315794  20309.581777  12482.480539   1974.682150
PE26   7254.979760 -26148.928594 -11801.646903   5214.956030
PE27  26591.654297 -11375.484894   6311.937175    584.503882
PE30  20429.536615   3903.812752  21058.008455   5326.314194
PE31 -20035.611577  -4198.908146 -21364.697241    976.283073
PG01 -13738.578298  21135.667558   7689.125837   -118.558469
PG02  15839.153997  -1461.255603 -20655.235157    -66.755975
PG03 -17712.563691  13255.918539 -14684.630372    163.221462
PG05  26355.148813  -2467.803334  -3375.030527     -0.014408
PG06   9755.416113  13716.120669 -20509.050240    328.578199
PG07  -4724.317253  25021.784971   6889.927771     83.184532
PG08 -15746.064801   3763.701265  21136.792957   -123.198970
PG09   2484.041935  20913.343161 -16226.055688    489.868741
PG10 -12584.277024 -12131.235367  20091.269074    160.743578
PG11 -10551.973504  18735.292020  15183.164156   -696.655036
PG12  21174.094082 -10266.699008 -12333.116689    289.885171
PG13  18235.081698   4949.995045  18561.720941    -83.655389
PG14 -18318.075735 -17990.853852  -6847.107754    -95.481801
PG15  13785.999001  -8303.993896  20917.211149   -338.776379
PG16 -26450.353578   -844.251781  -4336.959346     -2.729864
PG17  14203.504688  22400.738431   2695.406689    -27.708998
PG19  18174.006000  17665.935900  -8028.707188   -380.833857
PG20  -2278.653385 -15764.941958  21124.645981    519.076070
PG21    242.319574 -24889.351036  10161.224836   -299.376744
PG22 -22919.387288  11000.786164  -7389.577399   -581.382896
PG23  -6654.462247  15088.119533 -20436.701982   -205.437766
PG24  15097.653062 -17931.262520  12049.042135    -58.568413
PG25  10226.376838 -15057.424924 -19438.065033   -681.111464
PG26 -22369.642469  -5500.079916 -13362.964015     47.840111
PG27 -19883.606267  -6957.403701  16258.486027    -22.137472
PG28   9285.945123  13618.806338  21438.776981    755.766160
PG29    367.875888 -19738.710401 -17785.765948    330.063572
PG30   3446.767673  20965.900539  15849.000326     -9.192106
PG31 -11522.493845 -10873.354348 -21231.477370     77.672659
PG32 -16608.259744 -20786.757388    688.892460   -346.057842
PJ01 -30939.011347  18325.085997 -17350.586892   -262.385773
PJ02 -27282.740122  32037.112592   2174.959232     -0.811575
PJ03 -25025.532666  23596.741864  29510.292857      1.164050
PJ07 -25394.909559  33669.339577    -23.456438    254.353930
PR01 -22295.741538   -480.811366 -12375.313682     35.415177
PR02  -5789.524528   9547.086257 -22907.145165    340.984032
PR03  12734.109959  12993.425739 -17826.843356    149.672799
PR04  23944.814063   8555.108133  -1908.616757    284.829046
PR05  21110.650199   -385.619443  14299.218315     16.127636
PR07 -13183.966798 -13021.901459  17574.152928    -52.217745
PR08 -23742.639796  -8944.278850   2716.777679     20.334796
PR09  13473.055626 -18958.189470 -10535.202662     40.172418
PR10    271.368392 -13584.808242 -21620.136694     36.269568
PR11 -14757.826049   -120.292924 -20772.709766    -47.984385
PR13 -13804.717036  19067.365213   9807.406815    -17.164525
PR14     27.432047  13722.779330  21516.587038     33.292139
PR15  11318.937527   3854.029229  22530.800060    -19.527684
PR16  20042.919723 -12939.552550   8853.486700    107.110656
PR17   6387.228771  24593.090709  -2485.360744    182.507751
PR18  11263.346082  14564.256213 -17613.021777     27.458840
PR19  10020.360439  -3230.680732 -23230.935570    -61.770829
PR20   2695.625607 -20821.504111 -14507.005765   -360.051078
PR21  -6597.807846 -24437.804604   3017.704966    -16.100970
PR22 -11423.192418 -12553.402355  19096.768348    -64.635548
PR23  -8654.612102   8313.029251  22504.947357    192.516965
PR24  -1666.545010  21632.612261  13385.991421   -174.102544
PR26   3170.718783 -19718.733771 -15835.393483      6.060084
EOF
